NUSAT-1 (FRESCO)        
1 41557U 16033B   22356.95645490  .00025561  00000+0  62231-3 0  9990
2 41557  97.3901  95.6985 0010639  63.2852 356.0365 15.40863594366345
BEESAT-4                
1 41619U 16040W   22356.38632505  .00022646  00000+0  60964-3 0  9999
2 41619  97.1915  42.4572 0008377 150.6997 209.4720 15.37827317349533
CAS-2T & KS-1Q          
1 41847U 16066G   22356.66975406  .00000941  00000+0  15016-3 0  9993
2 41847  98.5293  60.9514 0362549   6.8148 353.7781 14.38969179321415
NAYIF-1 (EO-88)         
1 42017U 17008BX  22356.66107576  .00029760  00000+0  67842-3 0  9999
2 42017  97.2462  60.6953 0002738 299.9166  60.1810 15.42868569326008
ZHUHAI-1 02 (CAS-4B)    
1 42759U 17034B   22356.96964503  .00007111  00000+0  40059-3 0  9992
2 42759  43.0185  12.4542 0009541  34.8910  44.3454 15.13628524304909
ZHUHAI-1 01 (CAS-4A)    
1 42761U 17034D   22356.99592627  .00006825  00000+0  38391-3 0  9999
2 42761  43.0186  10.9538 0010061  37.3824  49.9074 15.13726015304916
MAX VALIER SAT          
1 42778U 17036P   22356.59416265  .00012959  00000+0  43709-3 0  9992
2 42778  97.1825  31.3947 0010570  25.6800 334.4965 15.30783380305643
RADFXSAT (FOX-1B)       
1 43017U 17073E   22356.26233016  .00005966  00000+0  44149-3 0  9994
2 43017  97.6532 242.6966 0241840 292.2269  65.3453 14.83050384274932
FOX-1D (AO-92)          
1 43137U 18004AC  22356.16218096  .00016700  00000+0  50913-3 0  9996
2 43137  97.3523  69.9527 0008248  60.5296 299.6769 15.33993137275070
DIWATA-2B               
1 43678U 18084H   22356.65895657  .00001003  00000+0  10325-3 0  9995
2 43678  97.9948 132.4908 0010505  31.4369 328.7515 14.92568477225924
ES'HAIL 2               
1 43700U 18090A   22356.86307973  .00000164  00000+0  00000+0 0  9992
2 43700   0.0171  27.6995 0001293 284.0231 116.1663  1.00271488 14918
FOX-1CLIFF (AO-95)      
1 43770U 18099N   22356.42907630  .00003247  00000+0  28290-3 0  9996
2 43770  97.5992  57.7819 0013994   9.3610 350.7871 14.97508148221133
ITASAT 1                
1 43786U 18099AE  22356.61230293  .00002643  00000+0  23106-3 0  9998
2 43786  97.6040  58.9680 0014668   4.2337 355.9007 14.97519974221208
JY1SAT (JO-97)          
1 43803U 18099AX  22356.75507923  .00003396  00000+0  28993-3 0  9995
2 43803  97.5991  58.9426 0014570   0.3872 359.7360 14.98262640221258
UWE-4                   
1 43880U 18111E   22356.68164535  .00005143  00000+0  42366-3 0  9997
2 43880  97.6577 259.6938 0013241  58.3352 301.9160 14.99436321217894
NEXUS (FO-99)           
1 43937U 19003F   22356.60421070  .00017845  00000+0  50181-3 0  9999
2 43937  97.1109  23.0585 0017234 192.8417 167.2391 15.36401618218800
PSAT2 (NO-104)          
1 44354U 19036R   22356.15946816  .00201347  48140-5  84084-3 0  9993
2 44354  28.5201 292.0249 0127411 327.0753  32.1971 15.72772295193880
JAISAT-1                
1 44419U 19038F   22356.65338881  .00011079  00000+0  49945-3 0  9994
2 44419  97.6583 328.9796 0016767 193.5843 166.4943 15.21087650191623
DUCHIFAT-3              
1 44854U 19089C   22356.56459648  .00006559  00000+0  48731-3 0  9997
2 44854  36.9640  63.9843 0008079 313.6770 191.0295 15.02689013166228
CAS-6 (TIANQIN 1)       
1 44881U 19093C   22356.83797308  .00000885  00000+0  11814-3 0  9998
2 44881  97.8795  73.2234 0013689 295.9831  63.9972 14.81986351162671
RS-44 & BREEZE-KM R/B   
1 44909U 19096E   22356.76578890  .00000014  00000+0  17784-4 0  9994
2 44909  82.5215 105.1790 0216684 239.2683 118.6917 12.79717220139592
ORBITAL FACTORY 2 (OF-2)
1 45113U 19071C   22356.60260766  .00065029  00000+0  76116-3 0  9998
2 45113  51.6314 205.3444 0010745 156.4332 203.7156 15.60867606162580
HUSKYSAT-1 (HO-107)     
1 45119U 19071J   22356.63026591  .00048586  00000+0  65146-3 0  9993
2 45119  51.6318 207.7437 0010577 150.4751 209.6840 15.57406022162548
BY70-2                  
1 45857U 20042B   22356.85537846  .00011781  00000+0  14619-2 0  9991
2 45857  97.9430  72.1064 0009550 218.3596 141.6916 14.82749773133340
SALSAT                  
1 46495U 20068K   22356.72710220  .00004460  00000+0  31337-3 0  9996
2 46495  97.7509 298.3867 0016377   4.5461 355.5911 15.05535871122503
BY70-3                  
1 46839U 20079N   22357.01540619  .00063268  00000+0  95457-3 0  9990
2 46839  97.1789  67.7307 0004216  21.2892  81.6871 15.54546327119396
RADFXSAT-2 (AO-109)     
1 47311U 21002C   22356.46838479  .00012030  00000+0  42152-3 0  9990
2 47311  60.6844  12.6959 0038934  86.2938 274.2603 15.29191349107175
UVSQ-SAT                
1 47438U 21006AB  22356.88729442  .00009305  00000+0  45564-3 0  9990
2 47438  97.4138  52.0602 0010808 348.4682  11.6302 15.18335541105844
DIY-1 (ARDUIQUBE)       
1 47963U 21022AH  22356.50277986  .00027772  00000+0  12248-2 0  9991
2 47963  97.5177 256.3826 0012480 193.7309 166.3589 15.21680843 95455
XW-3 (CAS-9)            
1 50466U 21131B   22356.94445057  .00000346  00000+0  12755-3 0  9990
2 50466  98.5677  73.9811 0003575 313.7155  46.3736 14.38600813 52010
TEVEL-3                 
1 50988U 22002E   22356.78787411  .00012459  00000+0  62277-3 0  9994
2 50988  97.4607  60.7409 0010047 125.4468  14.2529 15.17546751 51947
TEVEL-8                 
1 50989U 22002F   22356.79159052  .00012371  00000+0  61936-3 0  9994
2 50989  97.4626  60.7832 0010312 125.5051 330.2003 15.17489627 51949
TEVEL-5                 
1 50998U 22002Q   22356.73750603  .00012647  00000+0  62177-3 0  9991
2 50998  97.4611  60.9068 0011760 122.3910 333.4273 15.18106212 51955
TEVEL-6                 
1 50999U 22002R   22356.73651977  .00012656  00000+0  62211-3 0  9995
2 50999  97.4600  60.9022 0011744 122.2081 333.6080 15.18112892 51953
TEVEL-1                 
1 51013U 22002AF  22356.79337434  .00012438  00000+0  62230-3 0  9997
2 51013  97.4601  60.7100 0009885 125.3067  13.9753 15.17516462 51942
TEVEL-7                 
1 51062U 22002CG  22356.79361363  .00012389  00000+0  62024-3 0  9995
2 51062  97.4621  60.7644 0010337 124.4563 331.0785 15.17489831 51944
TEVEL-4                 
1 51063U 22002CH  22356.79555020  .00012302  00000+0  61628-3 0  9995
2 51063  97.4622  60.7597 0010318 124.4948 330.9456 15.17469542 51949
TEVEL-2                 
1 51069U 22002CP  22357.04336653  .00012518  00000+0  62564-3 0  9998
2 51069  97.4593  60.9705 0010006 124.7846 319.9820 15.17549332 51981
GREENCUBE               
1 53106U 22080B   22354.06292525 -.00000003  00000+0  00000+0 0  9996
2 53106  70.1740  21.9554 0009007 225.1214 134.8715  6.42557574 10246
YUZGU 9 (RS3S)          
1 53308U 98067TT  22356.34919584  .00185700  00000+0  12119-2 0  9996
2 53308  51.6336 114.2868 0005605 276.3883  83.6478 15.74749032 24046
YUZGU 7 (RS1S)          
1 53309U 98067TU  22356.82575175  .00211716  00000+0  13062-2 0  9999
2 53309  51.6325 111.4590 0006256 282.4644  77.5656 15.75952892 24076
YUZGU 11 (RS5S)         
1 53310U 98067TV  22356.72825343  .00187644  00000+0  12115-2 0  9995
2 53310  51.6344 112.3175 0005792 277.3192  82.7149 15.74989207 24088
YUZGU 12 (RS6S)         
1 53311U 98067TW  22356.60250906  .00226036  00000+0  13291-2 0  9995
2 53311  51.6308 112.2132 0005796 283.2763  76.7591 15.77004369 24090
TSIOLKOVSKY-RYAZAN 1 (*)
1 53312U 98067TX  22356.89613904  .00207928  00000+0  13029-2 0  9996
2 53312  51.6322 111.1885 0006575 283.4237  76.6030 15.75607145 24078
TSIOLKOVSKY-RYAZAN 2 (*)
1 53313U 98067TY  22356.95342124  .00205701  00000+0  12823-2 0  9995
2 53313  51.6337 110.8222 0006139 286.3680  73.6644 15.75735552 24135
YUZGU 10 (RS4S)         
1 53321U 98067TZ  22356.84254332  .00203325  00000+0  12888-2 0  9996
2 53321  51.6339 111.5789 0005824 280.2568  79.7775 15.75363341 24113
RS29S (SXC3-2110 CYCLO*)
1 53373U 22096D   22356.67132580  .00017272  00000+0  63664-3 0  9996
2 53373  97.4279 257.3202 0003434  69.7755  18.0398 15.27870699 20640
RS32S (SXC3-212 MONITO*)
1 53374U 22096E   22356.66364831  .00016192  00000+0  59706-3 0  9994
2 53374  97.4276 257.3243 0003363  66.7838  23.9867 15.27872073 20647
RS34S (SXC3-218 KUZBAS*)
1 53375U 22096F   22357.07819733  .00013345  00000+0  49960-3 0  9995
2 53375  97.4287 257.7015 0003381  65.1894  47.3073 15.27415717 20700
RS23S (SXC3-21 UTMN)    
1 53376U 22096G   22357.01171032  .00014688  00000+0  54775-3 0  9994
2 53376  97.4284 257.6457 0003292  63.6056  66.4094 15.27521694 20696
RS28S (SXC3-214 MIET-A*)
1 53377U 22096H   22356.80505985  .00013857  00000+0  51857-3 0  9994
2 53377  97.4283 257.4401 0003453  64.0567   8.1821 15.27418431 20666
RS26S (KAI-1)           
1 53378U 22096J   22356.80736786  .00012173  00000+0  45942-3 0  9998
2 53378  97.4288 257.4232 0003270  57.7577 344.2790 15.27169424 20665
RS19S (SXC3-219 ISOI)   
1 53381U 22096M   22356.69540016  .00014133  00000+0  52048-3 0  9991
2 53381  97.4282 257.4261 0004143 359.7498  60.6887 15.27941258 20650
RS21S (CUBESX-HSE-2)    
1 53383U 22096P   22356.76160999  .00014596  00000+0  53624-3 0  9993
2 53383  97.4280 257.5037 0004340 358.8412  86.9473 15.28012348 20660
RS30S (SXC3-217 SIREN)  
1 53384U 22096Q   22356.97134370  .00013281  00000+0  49153-3 0  9993
2 53384  97.4287 257.6988 0004409 354.8382 133.5426 15.27792369 20699
RS20S (GEOSCAN-EDELVEIS)
1 53385U 22096R   22356.78582123  .00018299  00000+0  65383-3 0  9993
2 53385  97.4275 257.6189 0004418 356.9396  87.8254 15.28878426 20700
RS33S (SXC3-215 VIZARD) 
1 53386U 22096S   22356.80641308  .00021095  00000+0  73245-3 0  9992
2 53386  97.4280 257.7433 0005386 353.4280  95.0200 15.29779517 20703
CAS-5A (FO-118)         
1 54684U 22167C   22356.67072240  .00009131  00000+0  58127-3 0  9990
2 54684  97.5382 131.4324 0014214 218.1324 267.5530 15.08917460  2016
CAS-10                  
1 54816U 21035C   22356.85506197  .00068327  00000+0  77888-3 0  9990
2 54816  41.4767 150.3129 0007555 221.6285 138.3977 15.61260404   629
